VCC B                   
1 44431U 98067QR  20115.39469571  .00010875  00000-0  15781-3 0  9995
2 44431  51.6401 246.1831 0002712 132.4950 227.6271 15.56387219 46022
ATL-1                   
1 44830U 19084G   20115.36155160  .00053099  00000-0  36859-3 0  9997
2 44830  96.9829 344.1674 0032403  86.2138 274.2831 15.73539954 21936
SMOG-P                  
1 44832U 19084J   20115.32997142  .00054289  00000-0  36550-3 0  9999
2 44832  96.9833 344.2208 0031432  85.1464 275.3389 15.74286244 21930
DUCHIFAT-3              
1 44854U 19089C   20115.20826377  .00000463  00000-0  43854-4 0  9997
2 44854  36.9669  58.9200 0008985 337.7747  22.2606 14.99030900 20159
ORBITAL FACTORY 2 (OF-2)
1 45113U 19071C   20115.45144634  .00001453  00000-0  56214-4 0  9997
2 45113  51.6429 264.3785 0012778 220.8707 139.1317 15.33158431 12843
